SL-3 R/B                
1 19046U 88032B   17257.71959613  .00000298  00000-0  26782-4 0  9992
2 19046  97.5229 302.0079 0038560  33.0643 327.2982 15.02292135586088
SL-16 R/B               
1 19120U 88039B   17257.11437444 -.00000026  00000-0  10612-4 0  9994
2 19120  71.0146 137.0268 0020324  47.7764 312.5081 14.19169438519008
COSMOS 1953             
1 19210U 88050A   17257.56801978  .00000423  00000-0  27471-4 0  9994
2 19210  82.5174 306.7281 0012269 319.7202  40.3115 15.05352328570159
SL-8 R/B                
1 19257U 88053B   17257.58314545  .00000108  00000-0  44997-4 0  9991
2 19257  74.0489  52.1931 0021414 280.5816 157.4442 14.37371161531337
COSMOS 1975             
1 19573U 88093A   17257.54379657  .00001009  00000-0  70445-4 0  9995
2 19573  82.5172 259.0204 0014489   1.7261 358.4013 15.04243235552103
SL-14 R/B               
1 19574U 88093B   17257.58893559  .00000118  00000-0  11439-4 0  9990
2 19574  82.5304  61.4786 0021686 177.8594 226.8874 14.83231698541615
SL-16 R/B               
1 19650U 88102B   17257.38687831 -.00000225  00000-0 -90387-4 0  9998
2 19650  71.0005 187.5335 0012750  39.2020 321.0024 14.15763911488346
INTERCOSMOS 24          
1 20261U 89080A   17257.55986468  .00000211  00000-0  62910-4 0  9995
2 20261  82.5943 312.0441 1202954 250.6399  96.1009 12.55899461277591
SL-14 R/B               
1 20262U 89080C   17257.43117934  .00000045  00000-0  49818-5 0  9995
2 20262  82.5985 358.9389 1237823  53.1529 317.6754 12.48871898273288
DELTA 1 R/B             
1 20323U 89089B   17257.45758687  .00000072  00000-0  27786-4 0  9999
2 20323  97.1138 189.2512 0072301 158.5852 201.8397 14.48213177447111
DELTA 2 R/B(1)          
1 20453U 90008B   17257.71384498  .00002846  00000-0  16310-3 0  9991
2 20453  35.6259  64.2340 0288463 193.1639 166.1420 14.83481561461505
COSMOS 2058             
1 20465U 90010A   17257.28721879  .00000493  00000-0  39869-4 0  9998
2 20465  82.4920 162.1978 0015698   0.8869 359.2379 14.97568307477565
SL-14 R/B               
1 20466U 90010B   17257.60825790  .00000081  00000-0  73278-5 0  9998
2 20466  82.5013 288.9386 0021666  47.9400 312.3653 14.81292829469679
SL-14 R/B               
1 20511U 90018B   17257.50561520  .00000099  00000-0  99711-5 0  9993
2 20511  82.5219 230.9226 0017551 175.1340 324.6393 14.79951249464175
HST                     
1 20580U 90037B   17257.12407589  .00000765  00000-0  36248-4 0  9997
2 20580  28.4693 139.8141 0002810  52.8630  75.3801 15.08848241303732
SL-16 R/B               
1 20625U 90046B   17257.58735533  .00000057  00000-0  54311-4 0  9995
2 20625  70.9995 321.5086 0015387 324.2693  35.7399 14.14615792410229
COSMOS 2084             
1 20663U 90055A   17257.52450061  .00000191  00000-0  33685-4 0  9991
2 20663  62.7913 289.9390 0139439  98.7885 262.9028 14.91651071473122
SL-6 R/B(2)             
1 20666U 90055D   17257.36431240  .00000156  00000-0  31308-4 0  9995
2 20666  62.7837 209.0353 0125528 118.1037 243.2812 14.91985778475019
SL-8 R/B                
1 20775U 90078B   17257.68086228  .00002443  00000-0  11869-3 0  9998
2 20775  82.9315 334.8240 0588062  66.5712 299.6169 14.31095211361561
SL-8 R/B                
1 21088U 91006B   17257.73738876  .00000024  00000-0  86570-5 0  9993
2 21088  82.9427 313.6697 0023846  71.2452  68.2314 13.77065549337927
OKEAN-3                 
1 21397U 91039A   17257.55959064  .00000402  00000-0  36576-4 0  9996
2 21397  82.5208  53.5114 0016591 301.0421  58.9169 14.92533633402059
COSMOS 2151             
1 21422U 91042A   17257.27228652  .00000241  00000-0  21273-4 0  9999
2 21422  82.5028 161.6825 0014426   3.6493 356.4829 14.91860122400701
SL-14 R/B               
1 21423U 91042B   17257.52636031  .00000130  00000-0  14256-4 0  9992
2 21423  82.4922 237.9205 0016632 322.0477  37.9563 14.79704038394756
ERS-1                   
1 21574U 91050A   17257.49323082  .00000089  00000-0  43946-4 0  9994
2 21574  98.4665 203.2632 0034027  49.5707 310.8439 14.37606288370435
ARIANE 40 R/B           
1 21610U 91050F   17257.63176546  .00000009  00000-0  16874-4 0  9994
2 21610  98.5961 314.6975 0003938  51.8259  63.7723 14.40807537372715
INTERCOSMOS 25          
1 21819U 91086A   17257.57072256  .00000477  00000-0  95503-4 0  9995
2 21819  82.5723   9.2861 1521388 256.7014  86.0540 12.04600167123027
SL-14 R/B               
1 21820U 91086B   17257.55808490  .00000244  00000-0  40754-4 0  9992
2 21820  82.5585  65.7586 1577487  88.2547 289.7796 11.93330706117446
SL-8 R/B                
1 21876U 92008B   17257.50853375 -.00000004  00000-0 -19912-4 0  9993
2 21876  82.9255  50.8172 0035579 143.3596 277.1810 13.75607617283439
SL-8 R/B                
1 21938U 92020B   17257.62944558 -.00000020  00000-0 -36374-4 0  9992
2 21938  82.9277 294.0605 0028009 304.0115 169.8861 13.75257801275281
SL-16 R/B               
1 22220U 92076B   17257.53582944 -.00000193  00000-0 -72733-4 0  9995
2 22220  70.9988 231.1722 0011296 145.5590 352.8400 14.16421007283097
SL-16 R/B               
1 22285U 92093B   17257.73099225 -.00000016  00000-0  16039-4 0  9992
2 22285  71.0242  24.4386 0005267 325.3138  34.7641 14.15017054275208
COSMOS 2228             
1 22286U 92094A   17257.57193996  .00000282  00000-0  28084-4 0  9993
2 22286  82.5193 289.8258 0020563 180.5512 179.5686 14.87703027314717
SL-16 R/B               
1 22566U 93016B   17257.56526622  .00000249  00000-0  15326-3 0  9991
2 22566  71.0055 239.3123 0010597 345.7912  14.2911 14.14948094263909
COSMOS 2242             
1 22626U 93024A   17257.59114729  .00000263  00000-0  26024-4 0  9995
2 22626  82.5227 317.5361 0019117 179.4509 180.6733 14.87700211319143
SL-16 R/B               
1 22803U 93059B   17257.61010353 -.00000115  00000-0 -33310-4 0  9995
2 22803  70.9900  61.0007 0019463 251.9804 107.9198 14.16780555240696
ARIANE 40 R/B           
1 22830U 93061H   17257.67422608 -.00000029  00000-0  64235-5 0  9998
2 22830  98.8820 275.1138 0011413  32.0170 328.1703 14.31411618251048
COSMOS 2278             
1 23087U 94023A   17257.35455199 -.00000089  00000-0 -22156-4 0  9990
2 23087  71.0555 172.6156 0006590  71.4844 288.6994 14.13758199207093
SL-16 R/B               
1 23088U 94023B   17257.79153121  .00000234  00000-0  14657-3 0  9995
2 23088  70.9989  93.9899 0004927 304.2055  55.8600 14.14661069208218
SL-16 R/B               
1 23343U 94074B   17257.59045032 -.00000007  00000-0  65976-5 0  9995
2 23343  98.1454 295.5273 0007786 138.4135 336.2104 14.76708676229817
SL-16 R/B               
1 23405U 94077B   17257.62017389  .00000237  00000-0  14635-3 0  9993
2 23405  70.9846  27.3633 0003608 222.4527 137.6317 14.15198688177919
ERS-2                   
1 23560U 95021A   17257.58260244  .00002156  00000-0  10133-3 0  9991
2 23560  98.5598 261.9777 0003964  23.8591 336.2824 15.20954436188948
ARIANE 40+ R/B          
1 23561U 95021B   17257.63127545  .00000045  00000-0  30314-4 0  9993
2 23561  98.7964 260.8994 0006967   4.4086 103.8194 14.37830456173884
SL-16 R/B               
1 23705U 95058B   17257.37561632  .00000162  00000-0  10814-3 0  9995
2 23705  71.0224 201.9101 0011981 172.2745 187.8565 14.15103298129801
SL-16 R/B               
1 24298U 96051B   17257.52345633 -.00000160  00000-0 -60296-4 0  9995
2 24298  70.8463 233.8421 0013198  45.2285 314.9906 14.12492370 84171
ORBVIEW 2 (SEASTAR)     
1 24883U 97037A   17257.74619801  .00000044  00000-0  31728-4 0  9992
2 24883  98.5474   5.2368 0002316 173.5932 186.5282 14.33408355 64738
SL-16 R/B               
1 25400U 98043G   17257.50250257  .00000005  00000-0  20268-4 0  9990
2 25400  98.4956 202.9027 0010633  39.8004 320.3954 14.25417640997570
SL-16 R/B               
1 25407U 98045B   17257.52884893 -.00000217  00000-0 -85948-4 0  9993
2 25407  71.0112 213.6813 0005589  61.0561 299.1122 14.15767424988554
ISS (ZARYA)             
1 25544U 98067A   17257.55825257  .00002700  00000-0  47912-4 0  9997
2 25544  51.6438 312.8021 0003632 271.9755 171.8802 15.54190898 75656
SL-8 R/B                
1 25723U 99022C   17257.56499369  .00009296  00000-0  14054-3 0  9997
2 25723  48.4164  50.4866 0008598 108.7866 251.4012 15.55312440 20088
CZ-4B R/B               
1 25732U 99025C   17257.61302017 -.00000022  00000-0  11399-4 0  9998
2 25732  98.9952 260.4585 0037077 195.4188 270.9139 14.17636350949204
OKEAN-O                 
1 25860U 99039A   17257.59732580  .00000089  00000-0  20405-4 0  9994
2 25860  98.1945 243.7331 0001157 111.9048 248.2284 14.76496039976922
SL-16 R/B               
1 25861U 99039B   17257.59066781  .00000063  00000-0  16015-4 0  9992
2 25861  98.1153 229.5533 0016327 149.6185 341.1644 14.78429864978878
TERRA                   
1 25994U 99068A   17257.68154454  .00000089  00000-0  29756-4 0  9990
2 25994  98.1997 331.4216 0000862  74.6679 285.4597 14.57115025943703
ENVISAT                 
1 27386U 02009A   17252.23779099 -.00000043  00000-0 -48634-6 0  9990
2 27386  98.2226 293.9743 0001446  93.2575 266.8792 14.37902329813158
IDEFIX & ARIANE 42P R/B 
1 27422U 02021B   17257.55823340 -.00000021  00000-0  77467-5 0  9994
2 27422  98.2348 252.9153 0011810 337.5690  22.4975 14.29256263801338
AQUA                    
1 27424U 02022A   17257.58330007  .00000131  00000-0  39099-4 0  9992
2 27424  98.2093 197.5616 0001498 138.3769 327.8286 14.57116514817249
CZ-4B R/B               
1 27432U 02024C   17257.54743360  .00000000  00000-0  23571-4 0  9992
2 27432  98.9975 231.6686 0051129 138.6760 328.2156 14.14049651791344
MIDORI II (ADEOS-II)    
1 27597U 02056A   17257.50299149  .00000066  00000-0  43905-4 0  9991
2 27597  98.3792 223.3143 0002205  76.2368 283.9059 14.27303260768161
H-2A R/B                
1 27601U 02056E   17257.79222698  .00000015  00000-0  20827-4 0  9995
2 27601  98.3684 322.4561 0072690  30.6863  77.2903 14.31796823770634
